ID,Student Name,Street Address,City,Province,Country,Email Address
1,Silrenya Endivain,4427 Baker Street,Tattoine,NA,Tattooine,sendiva@planet.com
2,Irizon Hexibil,4742 Queens Bay,Sudbury,ON,Canada,irizon@sentex.net
3,Del-Nara Cardan,3602 Keith Road,Parkoo,PK,Par-Koo,cardan@canpar.com
4,Ara Zerga,4740 Victoria Park Ave,Onja,IL,Illit,ara77@planet.com
5,Agnook Tiovata,2092 Richmond Street,Parkoo,PK,Par-Koo,argnookthegreat@teatime.com
6,Ghent Taurendil,3 Baker St,Arwen Gantu,UK,Gibralter,
7,Shass Major,14 Bowes Rd,Ricardo Ando,ON,Canada,
8,Anjylle Ulluto,7 Maplehurst Cl,Leilani Norith,PR,Pratak,
9,Sim Ashen,113 St Mary's Rd,Aayla Candroon,NA,Tattooine,
10,Kahar Donos,11 Danesfield Cl,Haken Beillane,ON,Canada,
11,Zae Kaiser,47 Lower Teddington Rd,Djingo Arlos,PK,Par-Koo,
12,Koro Magre,Royal Mail Epsom Delivery Offi,Seit Meln,IL,Illit,
13,Lenders Turon,32 Vincent Ave,Kittani Starkos,PK,Par-Koo,
14,Mala Varless,The St,Ramirez Vox,NA,Tattooine,
15,Jag Nafeel,Po Box,Aria Wes,ON,Canada,
16,Innoruuk Finn,Coney Warren Cottage,Lethro Tarask,PK,Par-Koo,
17,Keever Phrog,15 California Rd,Baku Tinto,IL,Illit,
18,Kaarl Nooram,15 Vale Rd S,Dorean Solimar,PK,Par-Koo,
19,Tomas Pescer,55 Greenwood Rd,Dione Moliere,NA,Tattooine,
20,Allen Bernard,34 Kingston Rd,Hoosha Fuqua,ON,Canada,
21,Strilath Mnaa,76 Coombe Ln W,Aria Wes,PK,Par-Koo,
22,Tomra Yavoog,2 Knighton Pl,Lethro Tarask,IL,Illit,
23,Adoniram Vadith,73-75 A244,Baku Tinto,PK,Par-Koo,
24,Braganti Sudime,11 Chiltern Dr,Dorean Solimar,NA,Tattooine,
25,Oren Haruhana,Albany House,Dione Moliere,ON,Canada,
26,Reiko Erelen,40 Mount Rd,Hoosha Fuqua,PK,Par-Koo,
27,Jakuu Hawkes,16 The Parade,Aria Wes,IL,Illit,
28,Tifa Nere,2 Westermain,Lethro Tarask,PK,Par-Koo,
29,Adan Mackali,3 Percy Gardens,Baku Tinto,NA,Tattooine,
30,Xerda Duann,6 Church Walk,Dorean Solimar,ON,Canada,
31,Lila Bintaghr,Chamberlain Close,Dione Moliere,PK,Par-Koo,
32,Noah Rohtul,51 Spinney Hill,Aria Wes,IL,Illit,
33,Yiukie Eronoss,22 Rowlls Rd,Lethro Tarask,PK,Par-Koo,
34,Kai Dalgas,42 Sandown Lodge,Baku Tinto,NA,Tattooine,
35,Tobian Tarmin,1 Ashburnham Park,Dorean Solimar,ON,Canada,
36,Gaeton Lerann,Dorking Rd,Dione Moliere,PK,Par-Koo,
37,Montross Anarth,7 Onslow Cl,Hoosha Fuqua,IL,Illit,
38,Karn Tong,124 Maple Rd,Aria Wes,PK,Par-Koo,
39,Tendra Olgad,Tumber St,Lethro Tarask,NA,Tattooine,
40,Ubinaarisan Shaknaw,13 Seymour Ave,Baku Tinto,ON,Canada,
41,Tarash Selkayim,24 Marrowells,Dorean Solimar,PK,Par-Koo,
42,Shivas Leqarna,11 Mulberry Cl,Dione Moliere,IL,Illit,
43,Akana Morrow,East Rd,Hoosha Fuqua,PK,Par-Koo,
44,Kristofer Kriek Kolbrun,456 Kingston Rd,Aria Wes,NA,Tattooine,
45,Roth We,46 Woodlands Ave,Lethro Tarask,ON,Canada,
46,Roy Starwalker,35 Woodlands,Baku Tinto,PK,Par-Koo,
47,Dorn Shysha,63-65 B369,Dorean Solimar,IL,Illit,
48,Karva Shapris,12A White Beam Way,Dione Moliere,PK,Par-Koo,
49,Cess Zayelt,72 Thames St,Hoosha Fuqua,NA,Tattooine,
50,Dodge Jantsk,110 Bridge Rd,Hoosha Fuqua,ON,Canada,
